ORBCOMM FM05            
1 25117U 97084F   24340.13054968  .00003905  00000+0  11578-2 0  9993
2 25117  45.0130 218.9332 0001877 341.4919  18.5863 14.44622145413476
ORBCOMM FM06            
1 25118U 97084G   24340.09645078  .00004262  00000+0  12551-2 0  9996
2 25118  45.0123 219.0801 0001124   5.4371 110.5754 14.44803734413462
ORBCOMM FM03            
1 25158U 98007B   24340.13998454  .00003868  00000+0  14241-2 0  9999
2 25158 107.9669  97.2022 0048460 229.7129 129.9769 14.33525128396361
ORBCOMM FM04            
1 25159U 98007C   24339.94995417  .00003995  00000+0  14647-2 0  9994
2 25159 107.9657  99.8972 0044069 227.8667 131.8724 14.33793652396371
ORBCOMM FM17            
1 25413U 98046A   24339.78110555  .00002661  00000+0  98827-3 0  9996
2 25413  44.9937  94.6040 0002734 277.0643  82.9893 14.34307490375257
ORBCOMM FM18            
1 25414U 98046B   24339.83639669  .00003582  00000+0  12323-2 0  9994
2 25414  44.9939  16.7325 0004243 349.1237  10.9518 14.37467646376279
ORBCOMM FM19            
1 25415U 98046C   24339.85969433  .00003156  00000+0  10956-2 0  9999
2 25415  44.9949  18.3204 0003567 332.4223 196.9485 14.37291558376234
